HORYU-4                 
1 41340U 16012D   21268.23903957  .00001211  00000-0  83520-4 0  9996
2 41340  31.0041 250.7856 0013667  84.3749 275.8445 15.02028318307807
E-ST@R-II               
1 41459U 16025D   21268.85319924  .00004514  00000-0  21754-3 0  9993
2 41459  98.1566  51.1598 0159554  84.3365 277.6044 15.08707804297555
AAUSAT 4                
1 41460U 16025E   21268.66937827  .00005869  00000-0  26754-3 0  9991
2 41460  98.1564  55.3642 0145260  67.1418 294.5111 15.12071065297852
BEESAT-4                
1 41619U 16040W   21268.40716320  .00004267  00000-0  16817-3 0  9999
2 41619  97.2588 321.6752 0009809 347.4722  12.6272 15.26069685280258
CANX-7                  
1 41788U 16059F   21268.55980485  .00026092  00000-0  27239-2 0  9996
2 41788  98.2491  17.7194 0025272 223.9802 136.0892 14.89453753268752
RAVAN                   
1 41849U 16067B   21267.91587099  .00001068  00000-0  92676-4 0  9991
2 41849  97.9790  32.9721 0009632 119.5857 240.6326 14.99239139266196
CELTEE 1                
1 41850U 16067C   21268.31199460  .00000210  00000-0  23261-4 0  9991
2 41850  97.9671  29.5262 0009532 132.7662 227.4363 14.97559428266062
OPTICUBE 04             
1 41851U 16067D   21268.27236501  .00000606  00000-0  57746-4 0  9999
2 41851  97.9643  28.7988 0009861 138.1916 222.0060 14.97173107266022
AEROCUBE 8D             
1 41852U 16067E   21268.13620329  .00000877  00000-0  80796-4 0  9991
2 41852  97.9639  28.5529 0010497 139.5587 220.6416 14.97324826265982
AEROCUBE 8C             
1 41853U 16067F   21268.57936110  .00000309  00000-0  31943-4 0  9998
2 41853  97.9645  28.8606 0010600 137.5850 222.6192 14.97298464266045
PROMETHEUS 2-1          
1 41854U 16067G   21267.88344970  .00001821  00000-0  15992-3 0  9994
2 41854  97.9651  28.8539 0011492 138.4655 221.7442 14.97843000265972
PROMETHEUS 2-3          
1 41855U 16067H   21268.61457725  .00001876  00000-0  16458-3 0  9998
2 41855  97.9652  29.6587 0011661 137.2554 222.9576 14.97862143266082
INS-1B                  
1 41954U 17008G   21268.43701454  .00004292  00000-0  16584-3 0  9990
2 41954  97.2976 329.3309 0010447  97.8977 262.3448 15.26724482256268
BGUSAT                  
1 41999U 17008BD  21268.13099654  .00007706  00000-0  25992-3 0  9994
2 41999  97.3159 336.4284 0008967  99.9362 260.2892 15.30947809255957
DIDO-2                  
1 42000U 17008BE  21268.45286039  .00002866  00000-0  11508-3 0  9998
2 42000  97.2975 329.4534 0009767 114.3340 245.8920 15.25714122255633
PEASSS                  
1 42015U 17008BV  21268.08249742  .00003839  00000-0  14590-3 0  9998
2 42015  97.3020 331.8437 0007643 113.5578 246.6465 15.27368892256225
AL-FARABI 1             
1 42016U 17008BW  21268.10688870  .00004795  00000-0  17420-3 0  9998
2 42016  97.3072 333.9058 0007451 111.6153 248.5881 15.28733171256455
NAYIF-1 (EO-88)         
1 42017U 17008BX  21268.13643014  .00005024  00000-0  18205-3 0  9991
2 42017  97.3065 333.9413 0007528 110.8191 249.3856 15.28792521256489
UCLSAT                  
1 42765U 17036A   21268.12229506  .00003823  00000-0  15424-3 0  9992
2 42765  97.2393 314.4997 0010783 175.9175 184.2154 15.25334528236778
LITUANICASAT-2          
1 42768U 17036D   21268.09840963  .00006451  00000-0  24447-3 0  9992
2 42768  97.2472 315.6171 0013956 165.7812 194.3823 15.27136827236674
AALTO-1                 
1 42775U 17036L   21268.42936181  .00002224  00000-0  97351-4 0  9994
2 42775  97.2373 311.0961 0013496 175.1340 185.0030 15.22979687236412
URSA MAIOR              
1 42776U 17036M   21268.08508514  .00002434  00000-0  10535-3 0  9993
2 42776  97.2387 311.2897 0013255 175.5437 184.5921 15.23274224236387
COMPASS 2               
1 42777U 17036N   21268.11713861  .00005044  00000-0  19649-3 0  9996
2 42777  97.2456 315.6720 0011970 166.3689 193.7875 15.26348422236618
DIAMOND RED             
1 42783U 17036U   21268.11526665  .00002848  00000-0  11939-3 0  9990
2 42783  97.2397 313.1806 0011458 180.9392 179.1826 15.24242877236496
PEGASUS                 
1 42784U 17036V   21268.13113417  .00003561  00000-0  14582-3 0  9990
2 42784  97.2402 313.9776 0011331 178.4139 181.7138 15.24872573236542
DIAMOND GREEN           
1 42785U 17036W   21268.37667400  .00001952  00000-0  82775-4 0  9995
2 42785  97.2404 313.4851 0011354 180.5624 179.5603 15.24221661236528
DIAMOND BLUE            
1 42786U 17036X   21268.11323917  .00002970  00000-0  12446-3 0  9998
2 42786  97.2400 313.2230 0011293 181.7272 178.3929 15.24223685236568
NUDTSAT                 
1 42787U 17036Y   21268.26570634  .00003983  00000-0  15260-3 0  9997
2 42787  97.2462 316.8625 0009324 171.3114 188.8286 15.27052463236565
SUCHAI                  
1 42788U 17036Z   21268.07570148  .00004512  00000-0  17929-3 0  9990
2 42788  97.2412 315.0494 0010921 174.9690 185.1660 15.25754396236679
SKCUBE                  
1 42789U 17036AA  21268.12334607  .00003879  00000-0  15593-3 0  9995
2 42789  97.2405 314.7572 0010823 175.5088 184.6250 15.25448205236582
VZLUSAT-1               
1 42790U 17036AB  21268.13062345  .00005272  00000-0  20126-3 0  9992
2 42790  97.2437 316.7182 0010375 169.6930 190.4524 15.27020065236693
ROBUSTA-1B              
1 42792U 17036AD  21268.07588090  .00004363  00000-0  17367-3 0  9990
2 42792  97.2408 315.1317 0010419 175.1016 185.0327 15.25716181236614
CICERO 6                
1 42793U 17036AE  21268.08286214  .00002552  00000-0  10676-3 0  9999
2 42793  97.2382 313.7390 0009723 179.6330 180.4917 15.24428798236612
D-SAT                   
1 42794U 17036AF  21268.78085615  .00000806  00000-0  74682-4 0  9997
2 42794  97.4596 283.3357 0123722 250.3906 108.3925 14.91690828232048
CORVUS BC2              
1 42846U 17042X   21268.20434403  .00000268  00000-0  31335-4 0  9992
2 42846  97.4569 135.0452 0009997 156.1572 204.0113 14.92362874228714
CORVUS BC1              
1 42847U 17042Y   21268.10145202  .00000451  00000-0  49039-4 0  9992
2 42847  97.4574 135.2050 0009695 155.2785 204.8901 14.92459559228707
MIRATA                  
1 43015U 17073C   21267.71829750  .00003745  00000-0  28787-3 0  9992
2 43015  97.6922 168.1787 0247980 332.6156  26.2163 14.81105402207908
MAKERSAT 0              
1 43016U 17073D   21268.27891074  .00002769  00000-0  21591-3 0  9994
2 43016  97.6950 168.6778 0252068 333.3852  25.4598 14.80252178207937
AEROCUBE 7B (OCSD B)    
1 43042U 17071F   21268.37849247  .00013775  00000-0  24508-3 0  9997
2 43042  51.6363 295.2999 0003458 339.4954  20.5896 15.50440447214327
AEROCUBE 7C (OCSD C)    
1 43043U 17071G   21268.35339537  .00014489  00000-0  25980-3 0  9990
2 43043  51.6350 295.8747 0003710 340.2665  19.8180 15.50170247214281
CHEFSAT                 
1 43044U 17071H   21268.44608106  .00065031  00000-0  58974-3 0  9990
2 43044  51.6320 249.6750 0003799  45.8523 314.2785 15.67396617214910
ASGARDIA 1              
1 43049U 17071N   21268.37134338  .00014439  00000-0  26169-3 0  9995
2 43049  51.6369 295.3941 0002386  10.2562 349.8475 15.49870400214285
ISARA                   
1 43050U 17071P   21268.24840456  .00045798  00000-0  51264-3 0  9994
2 43050  51.6300 260.8583 0003124  50.5283 309.5987 15.62236194214742
PROPCUBE 2 (FAUNA)      
1 43052U 17071R   21268.78646032  .00017381  00000-0  30077-3 0  9995
2 43052  51.6351 289.1565 0002345  14.6224 345.4833 15.51027877214400
CORVUS BC3              
1 43118U 18004H   21268.12675137  .00002400  00000-0  10028-3 0  9991
2 43118  97.3953 339.4313 0009041 210.7785 149.2923 15.24563533205762
MICROMAS-2A             
1 43131U 18004W   21268.13705629  .00005907  00000-0  21790-3 0  9990
2 43131  97.4043 343.4402 0007732 199.7124 160.3818 15.28141483205981
SPACEBEE-4              
1 43139U 18004AE  21268.13278777  .00009227  00000-0  31255-3 0  9993
2 43139  97.4116 346.2447 0007103 195.0925 165.0105 15.30774858206130
SPACEBEE-3              
1 43140U 18004AF  21268.17700174  .00012894  00000-0  40761-3 0  9996
2 43140  97.4152 348.1157 0006762 189.0704 171.0417 15.32910886206249
SPACEBEE-2              
1 43141U 18004AG  21268.14127217  .00013301  00000-0  41061-3 0  9993
2 43141  97.4172 348.7812 0006676 186.7317 173.3837 15.33661638206277
SPACEBEE-1              
1 43142U 18004AH  21267.73957767  .00016087  00000-0  48200-3 0  9995
2 43142  97.4185 349.0926 0006641 185.5126 174.6045 15.34565578206248
CICERO 7                
1 43143U 18004AJ  21268.02679557  .00006317  00000-0  23425-3 0  9994
2 43143  97.4016 343.3185 0005886 207.5468 152.5461 15.27951828205986
GOMX-4B                 
1 43196U 18015E   21268.26803344  .00001325  00000-0  55713-4 0  9993
2 43196  97.4989  41.3450 0016578 269.4324  90.5014 15.25118373202723
GOMX-4A                 
1 43197U 18015F   21268.84041745  .00002009  00000-0  81376-4 0  9991
2 43197  97.4983  42.2616 0016914 267.9505 195.5812 15.25759462202845
AEROCUBE 12A            
1 43556U 18046C   21267.80967133  .00007363  00000-0  24274-3 0  9998
2 43556  51.6417  30.4101 0007639 158.4557 201.6748 15.32458447178511
AEROCUBE 12B            
1 43557U 18046D   21267.88093490  .00006518  00000-0  22084-3 0  9991
2 43557  51.6421  32.3426 0007820 157.3227 202.8101 15.31775138178448
SURFSAT                 
1 43614U 18070B   21267.79107282  .00009218  00000-0  20686-3 0  9993
2 43614  93.0341 347.4349 0012660 348.8656  11.2318 15.43305119169980
CP7 (DAVE)              
1 43615U 18070C   21267.69875692  .00008494  00000-0  19281-3 0  9994
2 43615  93.0344 347.3388 0012925 349.3909  10.7073 15.42962832169956
ELFIN-B                 
1 43616U 18070D   21267.70767423  .00013353  00000-0  26769-3 0  9998
2 43616  93.0296 347.6693 0012102 344.5886  15.5002 15.46611827170106
ELFIN-A                 
1 43617U 18070E   21267.69859683  .00015346  00000-0  30155-3 0  9995
2 43617  93.0346 348.6111 0011368 341.5775  18.5071 15.47192803170126
